{
  "type": "FeatureCollection",
  "features": [
    {
      "type": "Feature",
      "properties": {
        "norad_id": 41599,
        "name": "CARTOSAT-2C",
        "group": "resource",
        "lat": 52.97019640145569,
        "lon": 41.462384117042376,
        "alt_km": 495.9999844217573,
        "timestamp": "2025-12-20T07:33:50.460982+00:00",
        "meta_object_name": "CARTOSAT-2C",
        "meta_object_id": "2016-040A",
        "meta_epoch": "2025-12-19T23:25:30.772704",
        "meta_mean_motion": 15.19173655,
        "meta_eccentricity": 0.00111001,
        "meta_inclination": 97.4763,
        "meta_ra_of_asc_node": 51.1521,
        "meta_arg_of_pericenter": 40.663,
        "meta_mean_anomaly": 319.5431,
        "meta_ephemeris_type": 0,
        "meta_classification_type": "U",
        "meta_norad_cat_id": 41599,
        "meta_element_set_no": 999,
        "meta_rev_at_epoch": 52650,
        "meta_bstar": 0.00010786039,
        "meta_mean_motion_dot": 2.202e-05,
        "meta_mean_motion_ddot": 0,
        "tle_line1": "1 41599U 16040A   25353.97605061  .00002202  00000+0  10786-3 0  9991",
        "tle_line2": "2 41599  97.4763  51.1521 0011100  40.6630 319.5431 15.19173655526500"
      },
      "geometry": {
        "type": "Point",
        "coordinates": [
          41.462384117042376,
          52.97019640145569
        ]
      }
    },
    {
      "type": "Feature",
      "properties": {
        "norad_id": 41601,
        "name": "SKYSAT-C1",
        "group": "resource",
        "lat": 64.3648559258027,
        "lon": -134.30305157575134,
        "alt_km": 462.1118983472443,
        "timestamp": "2025-12-20T07:33:50.460993+00:00",
        "meta_object_name": "SKYSAT-C1",
        "meta_object_id": "2016-040C",
        "meta_epoch": "2025-12-19T13:49:47.529120",
        "meta_mean_motion": 15.32708118,
        "meta_eccentricity": 0.000158,
        "meta_inclination": 96.9813,
        "meta_ra_of_asc_node": 30.2048,
        "meta_arg_of_pericenter": 351.0695,
        "meta_mean_anomaly": 9.052,
        "meta_ephemeris_type": 0,
        "meta_classification_type": "U",
        "meta_norad_cat_id": 41601,
        "meta_element_set_no": 999,
        "meta_rev_at_epoch": 53032,
        "meta_bstar": 0.00021842,
        "meta_mean_motion_dot": 6.827e-05,
        "meta_mean_motion_ddot": 0,
        "tle_line1": "1 41601U 16040C   25353.57624455  .00006827  00000+0  21842-3 0  9991",
        "tle_line2": "2 41601  96.9813  30.2048 0001580 351.0695   9.0520 15.32708118530325"
      },
      "geometry": {
        "type": "Point",
        "coordinates": [
          -134.30305157575134,
          64.3648559258027
        ]
      }
    },
    {
      "type": "Feature",
      "properties": {
        "norad_id": 41603,
        "name": "LAPAN-A3",
        "group": "resource",
        "lat": -48.66479270972066,
        "lon": 163.4000785828819,
        "alt_km": 476.2617623234428,
        "timestamp": "2025-12-20T07:33:50.461004+00:00",
        "meta_object_name": "LAPAN-A3",
        "meta_object_id": "2016-040E",
        "meta_epoch": "2025-12-19T22:43:33.398112",
        "meta_mean_motion": 15.31605971,
        "meta_eccentricity": 0.00089906,
        "meta_inclination": 97.1423,
        "meta_ra_of_asc_node": 351.241,
        "meta_arg_of_pericenter": 304.6683,
        "meta_mean_anomaly": 55.3711,
        "meta_ephemeris_type": 0,
        "meta_classification_type": "U",
        "meta_norad_cat_id": 41603,
        "meta_element_set_no": 999,
        "meta_rev_at_epoch": 52736,
        "meta_bstar": 9.1311338e-05,
        "meta_mean_motion_dot": 2.715e-05,
        "meta_mean_motion_ddot": 0,
        "tle_line1": "1 41603U 16040E   25353.94691433  .00002715  00000+0  91311-4 0  9995",
        "tle_line2": "2 41603  97.1423 351.2410 0008990 304.6683  55.3711 15.31605971527367"
      },
      "geometry": {
        "type": "Point",
        "coordinates": [
          163.4000785828819,
          -48.66479270972066
        ]
      }
    },
    {
      "type": "Feature",
      "properties": {
        "norad_id": 41604,
        "name": "BIROS",
        "group": "resource",
        "lat": -54.599603205058166,
        "lon": -163.9882856538645,
        "alt_km": 302.80484678530865,
        "timestamp": "2025-12-20T07:33:50.461015+00:00",
        "meta_object_name": "BIROS",
        "meta_object_id": "2016-040F",
        "meta_epoch": "2025-12-19T01:55:23.148192",
        "meta_mean_motion": 15.92127149,
        "meta_eccentricity": 0.00035441,
        "meta_inclination": 97.0685,
        "meta_ra_of_asc_node": 24.7778,
        "meta_arg_of_pericenter": 134.1983,
        "meta_mean_anomaly": 225.9584,
        "meta_ephemeris_type": 0,
        "meta_classification_type": "U",
        "meta_norad_cat_id": 41604,
        "meta_element_set_no": 999,
        "meta_rev_at_epoch": 52973,
        "meta_bstar": 0.00053351864,
        "meta_mean_motion_dot": 0.00176218,
        "meta_mean_motion_ddot": 1.3459503e-05,
        "tle_line1": "1 41604U 16040F   25353.08012903  .00176218  13460-4  53352-3 0  9991",
        "tle_line2": "2 41604  97.0685  24.7778 0003544 134.1983 225.9584 15.92127149529734"
      },
      "geometry": {
        "type": "Point",
        "coordinates": [
          -163.9882856538645,
          -54.599603205058166
        ]
      }
    },
    {
      "type": "Feature",
      "properties": {
        "norad_id": 41727,
        "name": "GAOFEN-3",
        "group": "resource",
        "lat": 80.87322702945349,
        "lon": -113.27033048916928,
        "alt_km": 743.0460535304846,
        "timestamp": "2025-12-20T07:33:50.461025+00:00",
        "meta_object_name": "GAOFEN-3",
        "meta_object_id": "2016-049A",
        "meta_epoch": "2025-12-19T22:48:23.706432",
        "meta_mean_motion": 14.42215134,
        "meta_eccentricity": 0.00012314,
        "meta_inclination": 98.4032,
        "meta_ra_of_asc_node": 359.4268,
        "meta_arg_of_pericenter": 58.0077,
        "meta_mean_anomaly": 302.1232,
        "meta_ephemeris_type": 0,
        "meta_classification_type": "U",
        "meta_norad_cat_id": 41727,
        "meta_element_set_no": 999,
        "meta_rev_at_epoch": 49281,
        "meta_bstar": -9.97199e-07,
        "meta_mean_motion_dot": -4.7e-07,
        "meta_mean_motion_ddot": 0,
        "tle_line1": "1 41727U 16049A   25353.95027438 -.00000047  00000+0 -99720-6 0  9992",
        "tle_line2": "2 41727  98.4032 359.4268 0001231  58.0077 302.1232 14.42215134492814"
      },
      "geometry": {
        "type": "Point",
        "coordinates": [
          -113.27033048916928,
          80.87322702945349
        ]
      }
    },
    {
      "type": "Feature",
      "properties": {
        "norad_id": 41771,
        "name": "SKYSAT-C4",
        "group": "resource",
        "lat": -45.69932652768313,
        "lon": 26.301812061510876,
        "alt_km": 447.1166823286694,
        "timestamp": "2025-12-20T07:33:50.461035+00:00",
        "meta_object_name": "SKYSAT-C4",
        "meta_object_id": "2016-058B",
        "meta_epoch": "2025-12-19T00:37:25.370976",
        "meta_mean_motion": 15.42424103,
        "meta_eccentricity": 0.00020919,
        "meta_inclination": 96.9363,
        "meta_ra_of_asc_node": 17.9086,
        "meta_arg_of_pericenter": 130.2828,
        "meta_mean_anomaly": 229.8603,
        "meta_ephemeris_type": 0,
        "meta_classification_type": "U",
        "meta_norad_cat_id": 41771,
        "meta_element_set_no": 999,
        "meta_rev_at_epoch": 51764,
        "meta_bstar": 0.00028649124,
        "meta_mean_motion_dot": 0.00012311,
        "meta_mean_motion_ddot": 0,
        "tle_line1": "1 41771U 16058B   25353.02598809  .00012311  00000+0  28649-3 0  9998",
        "tle_line2": "2 41771  96.9363  17.9086 0002091 130.2828 229.8603 15.42424103517644"
      },
      "geometry": {
        "type": "Point",
        "coordinates": [
          26.301812061510876,
          -45.69932652768313
        ]
      }
    },
    {
      "type": "Feature",
      "properties": {
        "norad_id": 41772,
        "name": "SKYSAT-C5",
        "group": "resource",
        "lat": 3.810351659030633,
        "lon": 37.276858359594996,
        "alt_km": 467.2543011516491,
        "timestamp": "2025-12-20T07:33:50.461046+00:00",
        "meta_object_name": "SKYSAT-C5",
        "meta_object_id": "2016-058C",
        "meta_epoch": "2025-12-19T20:35:18.291840",
        "meta_mean_motion": 15.33996702,
        "meta_eccentricity": 0.00037731,
        "meta_inclination": 97.0747,
        "meta_ra_of_asc_node": 37.3126,
        "meta_arg_of_pericenter": 258.4024,
        "meta_mean_anomaly": 101.6796,
        "meta_ephemeris_type": 0,
        "meta_classification_type": "U",
        "meta_norad_cat_id": 41772,
        "meta_element_set_no": 999,
        "meta_rev_at_epoch": 51625,
        "meta_bstar": 0.00020311222,
        "meta_mean_motion_dot": 6.607e-05,
        "meta_mean_motion_ddot": 0,
        "tle_line1": "1 41772U 16058C   25353.85785060  .00006607  00000+0  20311-3 0  9996",
        "tle_line2": "2 41772  97.0747  37.3126 0003773 258.4024 101.6796 15.33996702516258"
      },
      "geometry": {
        "type": "Point",
        "coordinates": [
          37.276858359594996,
          3.810351659030633
        ]
      }
    }
  ]
}